NORAD_CAT_ID,OBJECT_NAME,OBJECT_TYPE,EPOCH,MEAN_MOTION,ECCENTRICITY,INCLINATION,RA_OF_ASC_NODE,ARG_OF_PERICENTER,MEAN_ANOMALY,BSTAR,MEAN_MOTION_DOT,MEAN_MOTION_DDOT,TLE_LINE0,TLE_LINE1,TLE_LINE2,SEMIMAJOR_AXIS,PERIOD,APOGEE,PERIGEE,DECAYED
52303.0,STARLINK-3742,PAYLOAD,2022-09-01 22:00:00,15.0884212,0.0001688,53.2158,106.6793,61.5268,198.3115,-9.7637e-05,-1.842e-05,0.0,0 STARLINK-3742,1 52303U 22041AU  22244.91667824 -.00001842  00000-0 -97637-4 0  9992,2 52303  53.2158 106.6793 0001688  61.5268 198.3115 15.08842120  1305,6917.874,95.437,540.9069999999998,538.571,0.0
52303.0,STARLINK-3742,PAYLOAD,2022-09-02 06:00:00,15.08868597,0.0001599,53.2157,105.1822,61.01300000000001,210.4171,-0.0027018,-0.00043064,0.0,0 STARLINK-3742,1 52303U 22041AU  22245.25001157 -.00043064  00000-0 -27018-2 0  9997,2 52303  53.2157 105.1822 0001599  61.0130 210.4171 15.08868597 21828,6917.793000000002,95.436,540.764,538.552,0.0
52303.0,STARLINK-3742,PAYLOAD,2022-09-02 14:00:01,15.08835243,0.0001524,53.2159,103.6846,67.5988,215.447,-5.9879e-05,-1.241e-05,0.0,0 STARLINK-3742,1 52303U 22041AU  22245.58334491 -.00001241  00000-0 -59879-4 0  9996,2 52303  53.2159 103.6846 0001524  67.5988 215.4470 15.08835243  1309,6917.895,95.438,540.814,538.706,0.0
52303.0,STARLINK-3742,PAYLOAD,2022-09-02 22:00:01,15.08822511,0.0001643,53.216,102.19,59.5942,235.1042,0.00016915,2.404e-05,0.0,0 STARLINK-3742,1 52303U 22041AU  22245.91668981  .00002404  00000-0  16915-3 0  9990,2 52303  53.2160 102.1900 0001643  59.5942 235.1042 15.08822511 21927,6917.934,95.439,540.935,538.6619999999998,0.0
52303.0,STARLINK-3742,PAYLOAD,2022-09-03 14:00:01,15.08831132,0.0001557,53.2164,99.1955,66.6699,251.1332,0.0018461999999999,0.00029209,0.0,0 STARLINK-3742,1 52303U 22041AU  22246.58334491  .00029209  00000-0  18462-2 0  9990,2 52303  53.2164  99.1955 0001557  66.6699 251.1332 15.08831132  1307,6917.906999999997,95.438,540.85,538.695,0.0
52303.0,STARLINK-3742,PAYLOAD,2022-09-03 22:00:00,15.08839504,0.0001715,53.2165,97.701,59.2117,270.1927,0.00064772,0.00010035,0.0,0 STARLINK-3742,1 52303U 22041AU  22246.91667824  .00010035  00000-0  64772-3 0  9999,2 52303  53.2165  97.7010 0001715  59.2117 270.1927 15.08839504 22072,6917.882,95.438,540.933,538.56,0.0
52303.0,STARLINK-3742,PAYLOAD,2022-09-04 14:00:01,15.08848506,0.0001525,53.2171,94.7065,64.8498,287.8401,3.4334e-06,-2.33e-06,0.0,0 STARLINK-3742,1 52303U 22041AU  22247.58335648 -.00000233  00000-0  34334-5 0  9992,2 52303  53.2171  94.7065 0001525  64.8498 287.8401 15.08848506  1306,6917.854,95.437,540.774,538.664,0.0
52303.0,STARLINK-3742,PAYLOAD,2022-09-04 20:00:01,15.08855858,0.000159,53.217,93.5857,57.4348,213.8994,-0.0018019,-0.00028863,0.0,0 STARLINK-3742,1 52303U 22041AU  22247.83334491 -.00028863  00000-0 -18019-2 0  9994,2 52303  53.2170  93.5857 0001590  57.4348 213.8994 15.08855858  1309,6917.831999999999,95.437,540.797,538.597,0.0
52303.0,STARLINK-3742,PAYLOAD,2022-09-05 06:00:00,15.08844757,0.0001478,53.2173,91.7145,55.3782,320.4622,-0.0014927,-0.00023969,0.0,0 STARLINK-3742,1 52303U 22041AU  22248.25001157 -.00023969  00000-0 -14927-2 0  9997,2 52303  53.2173  91.7145 0001478  55.3782 320.4622 15.08844757 22274,6917.866,95.437,540.753,538.7080000000002,0.0
52303.0,STARLINK-3742,PAYLOAD,2022-09-05 14:00:01,15.08846614,0.0001391,53.2177,90.2176,61.2766,326.149,-0.00048428,-7.988e-05,0.0,0 STARLINK-3742,1 52303U 22041AU  22248.58334491 -.00007988  00000-0 -48428-3 0  9990,2 52303  53.2177  90.2176 0001391  61.2766 326.1490 15.08846614  1309,6917.86,95.437,540.687,538.763,0.0
52303.0,STARLINK-3742,PAYLOAD,2022-09-05 22:00:00,15.08811946,0.0001515,53.2176,88.723,52.7109,346.3221,0.0009628999999999,0.00015058,0.0,0 STARLINK-3742,1 52303U 22041AU  22248.91667824  .00015058  00000-0  96290-3 0  9991,2 52303  53.2176  88.7230 0001515  52.7109 346.3221 15.08811946  1301,6917.965999999999,95.439,540.879,538.783,0.0
52303.0,STARLINK-3742,PAYLOAD,2022-09-06 12:00:00,15.08788557,0.0001419,53.2177,86.1025,62.4318,266.8571,0.0027325,0.00043406,0.0,0 STARLINK-3742,1 52303U 22041AU  22249.50001157  .00043406  00000-0  27325-2 0  9998,2 52303  53.2177  86.1025 0001419  62.4318 266.8571 15.08788557 22464,6918.038000000001,95.441,540.884,538.9209999999998,0.0
52303.0,STARLINK-3742,PAYLOAD,2022-09-06 14:00:01,15.08809713,0.0001433,53.2177,85.7288,62.4523,359.7169,0.0007492,0.00011646,0.0,0 STARLINK-3742,1 52303U 22041AU  22249.58334491  .00011646  00000-0  74920-3 0  9991,2 52303  53.2177  85.7288 0001433  62.4523 359.7169 15.08809713  1307,6917.973000000001,95.439,540.8290000000002,538.847,0.0
52303.0,STARLINK-3742,PAYLOAD,2022-09-06 22:00:00,15.08798588,0.0001575,53.2176,84.2342,54.7911,18.9431,0.0015515999999999,0.00024464,0.0,0 STARLINK-3742,1 52303U 22041AU  22249.91667824  .00024464  00000-0  15516-2 0  9994,2 52303  53.2176  84.2342 0001575  54.7911  18.9431 15.08798588  1306,6918.007,95.44,540.962,538.7819999999998,0.0
52303.0,STARLINK-3742,PAYLOAD,2022-09-07 06:00:00,15.08826204,0.0001452,53.2174,82.7365,58.599,26.6932,-0.0011210999999999,-0.00018079,0.0,0 STARLINK-3742,1 52303U 22041AU  22250.25001157 -.00018079  00000-0 -11211-2 0  9999,2 52303  53.2174  82.7365 0001452  58.5990  26.6932 15.08826204 22576,6917.9230000000025,95.438,540.7919999999998,538.783,0.0
52303.0,STARLINK-3742,PAYLOAD,2022-09-07 14:00:01,15.08830878,0.0001428,53.2174,81.2399,63.6139,33.2451,6.9721e-05,8.22e-06,0.0,0 STARLINK-3742,1 52303U 22041AU  22250.58334491  .00000822  00000-0  69721-4 0  9991,2 52303  53.2174  81.2399 0001428  63.6139  33.2451 15.08830878  1302,6917.908,95.438,540.761,538.785,0.0
52303.0,STARLINK-3742,PAYLOAD,2022-09-07 22:00:00,15.08812407,0.0001547,53.2172,79.7452,55.5385,52.9092,0.0019584,0.00030994,0.0,0 STARLINK-3742,1 52303U 22041AU  22250.91667824  .00030994  00000-0  19584-2 0  9990,2 52303  53.2172  79.7452 0001547  55.5385  52.9092 15.08812407 22677,6917.965,95.439,540.9,538.76,0.0
52303.0,STARLINK-3742,PAYLOAD,2022-09-08 14:00:01,15.08851716,0.0001438,53.2169,76.7508,64.8388,66.7752,-0.00035232,-5.893e-05,0.0,0 STARLINK-3742,1 52303U 22041AU  22251.58334491 -.00005893  00000-0 -35232-3 0  9996,2 52303  53.2169  76.7508 0001438  64.8388  66.7752 15.08851716  1306,6917.845,95.437,540.7040000000002,538.715,0.0
52303.0,STARLINK-3742,PAYLOAD,2022-09-08 22:00:00,15.0882764,0.0001547,53.2166,75.2559,55.928,87.2986,0.0025524,0.00040554,0.0,0 STARLINK-3742,1 52303U 22041AU  22251.91667824  .00040554  00000-0  25524-2 0  9995,2 52303  53.2166  75.2559 0001547  55.9280  87.2986 15.08827640 22822,6917.918000000002,95.438,540.8530000000002,538.7130000000002,0.0
52303.0,STARLINK-3742,PAYLOAD,2022-09-09 14:00:01,15.08864284,0.0001553,53.2164,72.2614,65.6965,100.7421,-0.0021787,-0.00034818,0.0,0 STARLINK-3742,1 52303U 22041AU  22252.58334491 -.00034818  00000-0 -21787-2 0  9995,2 52303  53.2164  72.2614 0001553  65.6965 100.7421 15.08864284  1304,6917.806,95.436,540.745,538.597,0.0
52303.0,STARLINK-3742,PAYLOAD,2022-09-09 22:00:00,15.08818724,0.0001682,53.2163,70.7664,57.5224,120.5309,0.0031084,0.00049501,0.0,0 STARLINK-3742,1 52303U 22041AU  22252.91667824  .00049501  00000-0  31084-2 0  9995,2 52303  53.2163  70.7664 0001682  57.5224 120.5309 15.08818724  1305,6917.945,95.439,540.974,538.6469999999998,0.0
52303.0,STARLINK-3742,PAYLOAD,2022-09-10 06:00:02,15.08848389,0.000159,53.2162,69.2681,63.1015,126.6035,-0.00041382,-6.869e-05,0.0,0 STARLINK-3742,1 52303U 22041AU  22253.25002315 -.00006869  00000-0 -41382-3 0  9996,2 52303  53.2162  69.2681 0001590  63.1015 126.6035 15.08848389 23021,6917.855,95.437,540.82,538.62,0.0
52303.0,STARLINK-3742,PAYLOAD,2022-09-10 14:00:01,15.08855848,0.0001717,53.2165,67.7723,66.3716,134.874,-0.0023390999999999,-0.00037339,0.0,0 STARLINK-3742,1 52303U 22041AU  22253.58334491 -.00037339  00000-0 -23391-2 0  9990,2 52303  53.2165  67.7723 0001717  66.3716 134.8740 15.08855848  1307,6917.831999999999,95.437,540.885,538.509,0.0
52303.0,STARLINK-3742,PAYLOAD,2022-09-10 22:00:00,15.08808408,0.0001851,53.2165,66.2768,58.9608,153.8867,0.0033872,0.00053986,0.0,0 STARLINK-3742,1 52303U 22041AU  22253.91667824  .00053986  00000-0  33872-2 0  9995,2 52303  53.2165  66.2768 0001851  58.9608 153.8867 15.08808408  1307,6917.977,95.44,541.122,538.561,0.0
52303.0,STARLINK-3742,PAYLOAD,2022-09-11 14:00:01,15.08882723,0.000175,53.217,63.2846,67.7214,168.294,-0.0044263,-0.0007013,0.0,0 STARLINK-3742,1 52303U 22041AU  22254.58334491 -.00070130  00000-0 -44263-2 0  9998,2 52303  53.2170  63.2846 0001750  67.7214 168.2940 15.08882723  1300,6917.75,95.435,540.825,538.404,0.0
52303.0,STARLINK-3742,PAYLOAD,2022-09-11 22:00:00,15.08829895,0.0001831,53.2171,61.7873,56.7296,190.9248,0.0014835999999999,0.00023396,0.0,0 STARLINK-3742,1 52303U 22041AU  22254.91667824  .00023396  00000-0  14836-2 0  9997,2 52303  53.2171  61.7873 0001831  56.7296 190.9248 15.08829895 23287,6917.911,95.438,541.043,538.51,0.0
52303.0,STARLINK-3742,PAYLOAD,2022-09-12 12:00:00,15.08840176,0.0001644,53.2178,59.1667,62.6926,115.256,-0.00043893,-7.267e-05,0.0,0 STARLINK-3742,1 52303U 22041AU  22255.50001157 -.00007267  00000-0 -43893-3 0  9991,2 52303  53.2178  59.1667 0001644  62.6926 115.2560 15.08840176 23365,6917.88,95.438,540.882,538.6080000000002,0.0
52303.0,STARLINK-3742,PAYLOAD,2022-09-12 14:00:01,15.08844481,0.0001644,53.2177,58.7931,60.0273,210.818,-0.0012129,-0.00019542,0.0,0 STARLINK-3742,1 52303U 22041AU  22255.58334491 -.00019542  00000-0 -12129-2 0  9995,2 52303  53.2177  58.7931 0001644  60.0273 210.8180 15.08844481  1303,6917.8669999999975,95.437,540.869,538.594,0.0
52303.0,STARLINK-3742,PAYLOAD,2022-09-12 22:00:00,15.08815698,0.0001738,53.2178,57.2981,52.6635,229.7776,0.0035369999999999,0.00056417,0.0,0 STARLINK-3742,1 52303U 22041AU  22255.91667824  .00056417  00000-0  35370-2 0  9994,2 52303  53.2178  57.2981 0001738  52.6635 229.7776 15.08815698  1304,6917.955,95.439,541.0219999999998,538.617,0.0
